{"type":"FeatureCollection","meta":{"source":"Curated major cities (public coordinates). Admin-1 assigned via point-in-polygon on seeded admin1.geojson.","seededCountries":["us","in","ae","jp"]},"features":[{"type":"Feature","properties":{"id":"us-city-new-york","name":"New York","country":"us","admin1":"us-nj","pop":8000000,"capital":true},"geometry":{"type":"Point","coordinates":[-74,40.71]}},{"type":"Feature","properties":{"id":"us-city-los-angeles","name":"Los Angeles","country":"us","admin1":"us-ca","pop":4000000,"capital":false},"geometry":{"type":"Point","coordinates":[-118.24,34.05]}},{"type":"Feature","properties":{"id":"us-city-chicago","name":"Chicago","country":"us","admin1":"us-il","pop":2700000,"capital":false},"geometry":{"type":"Point","coordinates":[-87.63,41.88]}},{"type":"Feature","properties":{"id":"us-city-houston","name":"Houston","country":"us","admin1":"us-tx","pop":2300000,"capital":false},"geometry":{"type":"Point","coordinates":[-95.37,29.76]}},{"type":"Feature","properties":{"id":"us-city-phoenix","name":"Phoenix","country":"us","admin1":"us-az","pop":1600000,"capital":false},"geometry":{"type":"Point","coordinates":[-112.07,33.45]}},{"type":"Feature","properties":{"id":"us-city-philadelphia","name":"Philadelphia","country":"us","admin1":"us-pa","pop":1600000,"capital":false},"geometry":{"type":"Point","coordinates":[-75.17,39.95]}},{"type":"Feature","properties":{"id":"us-city-san-antonio","name":"San Antonio","country":"us","admin1":"us-tx","pop":1500000,"capital":false},"geometry":{"type":"Point","coordinates":[-98.49,29.42]}},{"type":"Feature","properties":{"id":"us-city-san-diego","name":"San Diego","country":"us","admin1":"us-ca","pop":1400000,"capital":false},"geometry":{"type":"Point","coordinates":[-117.16,32.72]}},{"type":"Feature","properties":{"id":"us-city-dallas","name":"Dallas","country":"us","admin1":"us-tx","pop":1300000,"capital":false},"geometry":{"type":"Point","coordinates":[-96.8,32.78]}},{"type":"Feature","properties":{"id":"us-city-san-jose","name":"San Jose","country":"us","admin1":"us-ca","pop":1000000,"capital":false},"geometry":{"type":"Point","coordinates":[-121.89,37.34]}},{"type":"Feature","properties":{"id":"us-city-austin","name":"Austin","country":"us","admin1":"us-tx","pop":1000000,"capital":false},"geometry":{"type":"Point","coordinates":[-97.74,30.27]}},{"type":"Feature","properties":{"id":"us-city-jacksonville","name":"Jacksonville","country":"us","admin1":"us-fl","pop":950000,"capital":false},"geometry":{"type":"Point","coordinates":[-81.66,30.33]}},{"type":"Feature","properties":{"id":"us-city-fort-worth","name":"Fort Worth","country":"us","admin1":"us-tx","pop":900000,"capital":false},"geometry":{"type":"Point","coordinates":[-97.33,32.76]}},{"type":"Feature","properties":{"id":"us-city-columbus","name":"Columbus","country":"us","admin1":"us-oh","pop":900000,"capital":false},"geometry":{"type":"Point","coordinates":[-82.99,39.96]}},{"type":"Feature","properties":{"id":"us-city-charlotte","name":"Charlotte","country":"us","admin1":"us-nc","pop":900000,"capital":false},"geometry":{"type":"Point","coordinates":[-80.84,35.23]}},{"type":"Feature","properties":{"id":"us-city-indianapolis","name":"Indianapolis","country":"us","admin1":"us-in","pop":880000,"capital":false},"geometry":{"type":"Point","coordinates":[-86.16,39.77]}},{"type":"Feature","properties":{"id":"us-city-san-francisco","name":"San Francisco","country":"us","admin1":"us-ca","pop":870000,"capital":false},"geometry":{"type":"Point","coordinates":[-122.42,37.77]}},{"type":"Feature","properties":{"id":"us-city-seattle","name":"Seattle","country":"us","admin1":"us-wa","pop":750000,"capital":false},"geometry":{"type":"Point","coordinates":[-122.33,47.61]}},{"type":"Feature","properties":{"id":"us-city-denver","name":"Denver","country":"us","admin1":"us-co","pop":720000,"capital":false},"geometry":{"type":"Point","coordinates":[-104.99,39.74]}},{"type":"Feature","properties":{"id":"us-city-washington","name":"Washington","country":"us","admin1":"us-dc","pop":700000,"capital":true},"geometry":{"type":"Point","coordinates":[-77.04,38.91]}},{"type":"Feature","properties":{"id":"us-city-boston","name":"Boston","country":"us","admin1":"us-ma","pop":680000,"capital":false},"geometry":{"type":"Point","coordinates":[-71.06,42.36]}},{"type":"Feature","properties":{"id":"us-city-nashville","name":"Nashville","country":"us","admin1":"us-tn","pop":680000,"capital":false},"geometry":{"type":"Point","coordinates":[-86.78,36.16]}},{"type":"Feature","properties":{"id":"us-city-detroit","name":"Detroit","country":"us","admin1":"us-mi","pop":630000,"capital":false},"geometry":{"type":"Point","coordinates":[-83.05,42.33]}},{"type":"Feature","properties":{"id":"us-city-portland","name":"Portland","country":"us","admin1":"us-or","pop":650000,"capital":false},"geometry":{"type":"Point","coordinates":[-122.68,45.52]}},{"type":"Feature","properties":{"id":"us-city-las-vegas","name":"Las Vegas","country":"us","admin1":"us-nv","pop":650000,"capital":false},"geometry":{"type":"Point","coordinates":[-115.14,36.17]}},{"type":"Feature","properties":{"id":"us-city-atlanta","name":"Atlanta","country":"us","admin1":"us-ga","pop":500000,"capital":false},"geometry":{"type":"Point","coordinates":[-84.39,33.75]}},{"type":"Feature","properties":{"id":"us-city-miami","name":"Miami","country":"us","admin1":"us-fl","pop":450000,"capital":false},"geometry":{"type":"Point","coordinates":[-80.19,25.76]}},{"type":"Feature","properties":{"id":"in-city-mumbai","name":"Mumbai","country":"in","admin1":"in-maharashtra","pop":20000000,"capital":false},"geometry":{"type":"Point","coordinates":[72.88,19.08]}},{"type":"Feature","properties":{"id":"in-city-delhi","name":"Delhi","country":"in","admin1":"in-delhi","pop":16000000,"capital":true},"geometry":{"type":"Point","coordinates":[77.21,28.61]}},{"type":"Feature","properties":{"id":"in-city-bengaluru","name":"Bengaluru","country":"in","admin1":"in-karnataka","pop":12000000,"capital":false},"geometry":{"type":"Point","coordinates":[77.59,12.97]}},{"type":"Feature","properties":{"id":"in-city-hyderabad","name":"Hyderabad","country":"in","admin1":"in-telangana","pop":10000000,"capital":false},"geometry":{"type":"Point","coordinates":[78.49,17.39]}},{"type":"Feature","properties":{"id":"in-city-chennai","name":"Chennai","country":"in","admin1":"in-tamil-nadu","pop":10000000,"capital":false},"geometry":{"type":"Point","coordinates":[80.27,13.08]}},{"type":"Feature","properties":{"id":"in-city-kolkata","name":"Kolkata","country":"in","admin1":"in-west-bengal","pop":14000000,"capital":false},"geometry":{"type":"Point","coordinates":[88.36,22.57]}},{"type":"Feature","properties":{"id":"in-city-pune","name":"Pune","country":"in","admin1":"in-maharashtra","pop":7000000,"capital":false},"geometry":{"type":"Point","coordinates":[73.86,18.52]}},{"type":"Feature","properties":{"id":"in-city-ahmedabad","name":"Ahmedabad","country":"in","admin1":"in-gujarat","pop":7000000,"capital":false},"geometry":{"type":"Point","coordinates":[72.57,23.02]}},{"type":"Feature","properties":{"id":"in-city-jaipur","name":"Jaipur","country":"in","admin1":"in-rajasthan","pop":4000000,"capital":false},"geometry":{"type":"Point","coordinates":[75.79,26.91]}},{"type":"Feature","properties":{"id":"in-city-lucknow","name":"Lucknow","country":"in","admin1":"in-uttar-pradesh","pop":3500000,"capital":false},"geometry":{"type":"Point","coordinates":[80.95,26.85]}},{"type":"Feature","properties":{"id":"ae-city-dubai","name":"Dubai","country":"ae","admin1":"ae-dubai","pop":3500000,"capital":false},"geometry":{"type":"Point","coordinates":[55.27,25.2]}},{"type":"Feature","properties":{"id":"ae-city-abu-dhabi","name":"Abu Dhabi","country":"ae","admin1":"ae-abu-dhabi","pop":1500000,"capital":true},"geometry":{"type":"Point","coordinates":[54.37,24.45]}},{"type":"Feature","properties":{"id":"ae-city-sharjah","name":"Sharjah","country":"ae","admin1":"ae-dubai","pop":1800000,"capital":false},"geometry":{"type":"Point","coordinates":[55.4,25.35]}},{"type":"Feature","properties":{"id":"ae-city-ajman","name":"Ajman","country":"ae","admin1":"ae-sharjah","pop":500000,"capital":false},"geometry":{"type":"Point","coordinates":[55.47,25.41]}},{"type":"Feature","properties":{"id":"ae-city-ras-al-khaimah","name":"Ras Al Khaimah","country":"ae","admin1":"ae-rak","pop":400000,"capital":false},"geometry":{"type":"Point","coordinates":[55.94,25.79]}},{"type":"Feature","properties":{"id":"ae-city-fujairah","name":"Fujairah","country":"ae","admin1":"ae-fujairah","pop":250000,"capital":false},"geometry":{"type":"Point","coordinates":[56.34,25.13]}},{"type":"Feature","properties":{"id":"jp-city-tokyo","name":"Tokyo","country":"jp","admin1":"jp-kanto","pop":14000000,"capital":true},"geometry":{"type":"Point","coordinates":[139.69,35.69]}},{"type":"Feature","properties":{"id":"jp-city-yokohama","name":"Yokohama","country":"jp","admin1":"jp-kanto","pop":3700000,"capital":false},"geometry":{"type":"Point","coordinates":[139.64,35.44]}},{"type":"Feature","properties":{"id":"jp-city-osaka","name":"Osaka","country":"jp","admin1":"jp-kansai","pop":2700000,"capital":false},"geometry":{"type":"Point","coordinates":[135.5,34.69]}},{"type":"Feature","properties":{"id":"jp-city-nagoya","name":"Nagoya","country":"jp","admin1":"jp-chubu","pop":2300000,"capital":false},"geometry":{"type":"Point","coordinates":[136.91,35.18]}},{"type":"Feature","properties":{"id":"jp-city-sapporo","name":"Sapporo","country":"jp","admin1":"jp-hokkaido","pop":1900000,"capital":false},"geometry":{"type":"Point","coordinates":[141.35,43.06]}},{"type":"Feature","properties":{"id":"jp-city-fukuoka","name":"Fukuoka","country":"jp","admin1":"jp-kyushu","pop":1600000,"capital":false},"geometry":{"type":"Point","coordinates":[130.4,33.59]}},{"type":"Feature","properties":{"id":"jp-city-kobe","name":"Kobe","country":"jp","admin1":"jp-kansai","pop":1500000,"capital":false},"geometry":{"type":"Point","coordinates":[135.2,34.69]}},{"type":"Feature","properties":{"id":"jp-city-kyoto","name":"Kyoto","country":"jp","admin1":"jp-kansai","pop":1400000,"capital":false},"geometry":{"type":"Point","coordinates":[135.77,35.01]}},{"type":"Feature","properties":{"id":"jp-city-sendai","name":"Sendai","country":"jp","admin1":"jp-tohoku","pop":1000000,"capital":false},"geometry":{"type":"Point","coordinates":[140.87,38.27]}}]}